{"type": "FeatureCollection", "features": [ {"type": "Feature", "properties": {"norad_id": 66353, "name": "STARLINK-35869", "group": "last-30-days", "lat": 14.686974000268298, "lon": -25.218838805778663, "alt_km": 370.61335802049507, "timestamp": "2025-12-02T23:34:14.289483+00:00", "meta": {"OBJECT_NAME": "STARLINK-35869", "OBJECT_ID": "2025-254F", "EPOCH": "2025-12-02T12:00:05.998752", "MEAN_MOTION": 15.67452745, "ECCENTRICITY": 0.0001294, "INCLINATION": 53.1587, "RA_OF_ASC_NODE": 325.8132, "ARG_OF_PERICENTER": 80.2332, "MEAN_ANOMALY": 98.5261, "EPHEMERIS_TYPE": 0, "CLASSIFICATION_TYPE": "U", "NORAD_CAT_ID": 66353, "ELEMENT_SET_NO": 999, "REV_AT_EPOCH": 527, "BSTAR": -0.020275, "MEAN_MOTION_DOT": -0.01975709, "MEAN_MOTION_DDOT": 0}, "tle": {"line1": "1 66353U 25254F   25336.50006943 -.01975709  00000+0 -20275-1 0  9993", "line2": "2 66353  53.1587 325.8132 0001294  80.2332  98.5261 15.67452745  5273"}}, "geometry": {"type": "Point", "coordinates": [-25.218838805778663, 14.686974000268298]}}, {"type": "Feature", "properties": {"norad_id": 66354, "name": "STARLINK-35895", "group": "last-30-days", "lat": -41.902390600741576, "lon": -173.98351383056053, "alt_km": 418.3426033759242, "timestamp": "2025-12-02T23:34:14.289494+00:00", "meta": {"OBJECT_NAME": "STARLINK-35895", "OBJECT_ID": "2025-254G", "EPOCH": "2025-12-02T12:00:05.998752", "MEAN_MOTION": 15.53786389, "ECCENTRICITY": 0.0001185, "INCLINATION": 53.1585, "RA_OF_ASC_NODE": 326.051, "ARG_OF_PERICENTER": 66.9203, "MEAN_ANOMALY": 353.9519, "EPHEMERIS_TYPE": 0, "CLASSIFICATION_TYPE": "U", "NORAD_CAT_ID": 66354, "ELEMENT_SET_NO": 999, "REV_AT_EPOCH": 527, "BSTAR": -0.042443, "MEAN_MOTION_DOT": -0.02417187, "MEAN_MOTION_DDOT": 0}, "tle": {"line1": "1 66354U 25254G   25336.50006943 -.02417187  00000+0 -42443-1 0  9997", "line2": "2 66354  53.1585 326.0510 0001185  66.9203 353.9519 15.53786389  5275"}}, "geometry": {"type": "Point", "coordinates": [-173.98351383056053, -41.902390600741576]}}, {"type": "Feature", "properties": {"norad_id": 66355, "name": "STARLINK-35861", "group": "last-30-days", "lat": 17.682028341442173, "lon": -22.731094266769208, "alt_km": 370.09238819670645, "timestamp": "2025-12-02T23:34:14.289505+00:00", "meta": {"OBJECT_NAME": "STARLINK-35861", "OBJECT_ID": "2025-254H", "EPOCH": "2025-12-02T12:00:05.998752", "MEAN_MOTION": 15.67452033, "ECCENTRICITY": 0.0001338, "INCLINATION": 53.1587, "RA_OF_ASC_NODE": 325.8054, "ARG_OF_PERICENTER": 82.2832, "MEAN_ANOMALY": 100.3075, "EPHEMERIS_TYPE": 0, "CLASSIFICATION_TYPE": "U", "NORAD_CAT_ID": 66355, "ELEMENT_SET_NO": 999, "REV_AT_EPOCH": 527, "BSTAR": -0.020242, "MEAN_MOTION_DOT": -0.01972829, "MEAN_MOTION_DDOT": 0}, "tle": {"line1": "1 66355U 25254H   25336.50006943 -.01972829  00000+0 -20242-1 0  9999", "line2": "2 66355  53.1587 325.8054 0001338  82.2832 100.3075 15.67452033  5279"}}, "geometry": {"type": "Point", "coordinates": [-22.731094266769208, 17.682028341442173]}}, {"type": "Feature", "properties": {"norad_id": 66356, "name": "STARLINK-35851", "group": "last-30-days", "lat": 19.168184750468203, "lon": -21.457195871264613, "alt_km": 369.8809766672239, "timestamp": "2025-12-02T23:34:14.289516+00:00", "meta": {"OBJECT_NAME": "STARLINK-35851", "OBJECT_ID": "2025-254J", "EPOCH": "2025-12-02T12:00:05.998752", "MEAN_MOTION": 15.67463602, "ECCENTRICITY": 0.0001371, "INCLINATION": 53.1589, "RA_OF_ASC_NODE": 325.8008, "ARG_OF_PERICENTER": 84.9648, "MEAN_ANOMALY": 99.5428, "EPHEMERIS_TYPE": 0, "CLASSIFICATION_TYPE": "U", "NORAD_CAT_ID": 66356, "ELEMENT_SET_NO": 999, "REV_AT_EPOCH": 527, "BSTAR": -0.02046, "MEAN_MOTION_DOT": -0.0199246, "MEAN_MOTION_DDOT": 0}, "tle": {"line1": "1 66356U 25254J   25336.50006943 -.01992460  00000+0 -20460-1 0  9995", "line2": "2 66356  53.1589 325.8008 0001371  84.9648  99.5428 15.67463602  5277"}}, "geometry": {"type": "Point", "coordinates": [-21.457195871264613, 19.168184750468203]}}, {"type": "Feature", "properties": {"norad_id": 66357, "name": "STARLINK-35817", "group": "last-30-days", "lat": 20.646094384839177, "lon": -20.15877307265701, "alt_km": 369.61392236248594, "timestamp": "2025-12-02T23:34:14.289528+00:00", "meta": {"OBJECT_NAME": "STARLINK-35817", "OBJECT_ID": "2025-254K", "EPOCH": "2025-12-02T12:00:05.998752", "MEAN_MOTION": 15.67452307, "ECCENTRICITY": 0.0001304, "INCLINATION": 53.1588, "RA_OF_ASC_NODE": 325.7967, "ARG_OF_PERICENTER": 85.0926, "MEAN_ANOMALY": 101.3327, "EPHEMERIS_TYPE": 0, "CLASSIFICATION_TYPE": "U", "NORAD_CAT_ID": 66357, "ELEMENT_SET_NO": 999, "REV_AT_EPOCH": 527, "BSTAR": -0.020255, "MEAN_MOTION_DOT": -0.01974007, "MEAN_MOTION_DDOT": 0}, "tle": {"line1": "1 66357U 25254K   25336.50006943 -.01974007  00000+0 -20255-1 0  9995", "line2": "2 66357  53.1588 325.7967 0001304  85.0926 101.3327 15.67452307  5277"}}, "geometry": {"type": "Point", "coordinates": [-20.15877307265701, 20.646094384839177]}}, {"type": "Feature", "properties": {"norad_id": 66358, "name": "STARLINK-35807", "group": "last-30-days", "lat": 22.113629952636238, "lon": -18.835641710459633, "alt_km": 369.4315409413084, "timestamp": "2025-12-02T23:34:14.289538+00:00", "meta": {"OBJECT_NAME": "STARLINK-35807", "OBJECT_ID": "2025-254L", "EPOCH": "2025-12-02T12:00:05.998752", "MEAN_MOTION": 15.67456069, "ECCENTRICITY": 0.000124, "INCLINATION": 53.1587, "RA_OF_ASC_NODE": 325.7922, "ARG_OF_PERICENTER": 90.3044, "MEAN_ANOMALY": 98.0346, "EPHEMERIS_TYPE": 0, "CLASSIFICATION_TYPE": "U", "NORAD_CAT_ID": 66358, "ELEMENT_SET_NO": 999, "REV_AT_EPOCH": 527, "BSTAR": -0.020293, "MEAN_MOTION_DOT": -0.01977499, "MEAN_MOTION_DDOT": 0}, "tle": {"line1": "1 66358U 25254L   25336.50006943 -.01977499  00000+0 -20293-1 0  9996", "line2": "2 66358  53.1587 325.7922 0001240  90.3044  98.0346 15.67456069  5279"}}, "geometry": {"type": "Point", "coordinates": [-18.835641710459633, 22.113629952636238]}}, {"type": "Feature", "properties": {"norad_id": 66359, "name": "STARLINK-35805", "group": "last-30-days", "lat": 23.569608526514855, "lon": -17.484470711204775, "alt_km": 369.05853803245554, "timestamp": "2025-12-02T23:34:14.289548+00:00", "meta": {"OBJECT_NAME": "STARLINK-35805", "OBJECT_ID": "2025-254M", "EPOCH": "2025-12-02T12:00:05.998752", "MEAN_MOTION": 15.67451225, "ECCENTRICITY": 0.0001388, "INCLINATION": 53.1591, "RA_OF_ASC_NODE": 325.7888, "ARG_OF_PERICENTER": 85.5667, "MEAN_ANOMALY": 104.6917, "EPHEMERIS_TYPE": 0, "CLASSIFICATION_TYPE": "U", "NORAD_CAT_ID": 66359, "ELEMENT_SET_NO": 999, "REV_AT_EPOCH": 524, "BSTAR": -0.020229, "MEAN_MOTION_DOT": -0.01971766, "MEAN_MOTION_DDOT": 0}, "tle": {"line1": "1 66359U 25254M   25336.50006943 -.01971766  00000+0 -20229-1 0  9997", "line2": "2 66359  53.1591 325.7888 0001388  85.5667 104.6917 15.67451225  5240"}}, "geometry": {"type": "Point", "coordinates": [-17.484470711204775, 23.569608526514855]}}, {"type": "Feature", "properties": {"norad_id": 66360, "name": "STARLINK-35823", "group": "last-30-days", "lat": 26.446576723388695, "lon": -14.688392714719695, "alt_km": 368.5735993663902, "timestamp": "2025-12-02T23:34:14.289558+00:00", "meta": {"OBJECT_NAME": "STARLINK-35823", "OBJECT_ID": "2025-254N", "EPOCH": "2025-12-02T12:00:05.998752", "MEAN_MOTION": 15.67451074, "ECCENTRICITY": 0.0001346, "INCLINATION": 53.1594, "RA_OF_ASC_NODE": 325.78, "ARG_OF_PERICENTER": 86.9314, "MEAN_ANOMALY": 107.1622, "EPHEMERIS_TYPE": 0, "CLASSIFICATION_TYPE": "U", "NORAD_CAT_ID": 66360, "ELEMENT_SET_NO": 999, "REV_AT_EPOCH": 527, "BSTAR": -0.020239, "MEAN_MOTION_DOT": -0.01972585, "MEAN_MOTION_DDOT": 0}, "tle": {"line1": "1 66360U 25254N   25336.50006943 -.01972585  00000+0 -20239-1 0  9990", "line2": "2 66360  53.1594 325.7800 0001346  86.9314 107.1622 15.67451074  5273"}}, "geometry": {"type": "Point", "coordinates": [-14.688392714719695, 26.446576723388695]}}, {"type": "Feature", "properties": {"norad_id": 66361, "name": "STARLINK-35813", "group": "last-30-days", "lat": 25.013493068318553, "lon": -16.103320342923475, "alt_km": 368.8387079245722, "timestamp": "2025-12-02T23:34:14.289568+00:00", "meta": {"OBJECT_NAME": "STARLINK-35813", "OBJECT_ID": "2025-254P", "EPOCH": "2025-12-02T12:00:05.998752", "MEAN_MOTION": 15.67455018, "ECCENTRICITY": 0.0001414, "INCLINATION": 53.159, "RA_OF_ASC_NODE": 325.7849, "ARG_OF_PERICENTER": 88.8309, "MEAN_ANOMALY": 103.3447, "EPHEMERIS_TYPE": 0, "CLASSIFICATION_TYPE": "U", "NORAD_CAT_ID": 66361, "ELEMENT_SET_NO": 999, "REV_AT_EPOCH": 527, "BSTAR": -0.020311, "MEAN_MOTION_DOT": -0.01979101, "MEAN_MOTION_DDOT": 0}, "tle": {"line1": "1 66361U 25254P   25336.50006943 -.01979101  00000+0 -20311-1 0  9993", "line2": "2 66361  53.1590 325.7849 0001414  88.8309 103.3447 15.67455018  5279"}}, "geometry": {"type": "Point", "coordinates": [-16.103320342923475, 25.013493068318553]}}, {"type": "Feature", "properties": {"norad_id": 66362, "name": "STARLINK-35822", "group": "last-30-days", "lat": 29.265865401407478, "lon": -11.748006660268116, "alt_km": 368.128878636664, "timestamp": "2025-12-02T23:34:14.289578+00:00", "meta": {"OBJECT_NAME": "STARLINK-35822", "OBJECT_ID": "2025-254Q", "EPOCH": "2025-12-02T12:00:05.998752", "MEAN_MOTION": 15.67454333, "ECCENTRICITY": 0.0001262, "INCLINATION": 53.159, "RA_OF_ASC_NODE": 325.7728, "ARG_OF_PERICENTER": 89.0274, "MEAN_ANOMALY": 108.899, "EPHEMERIS_TYPE": 0, "CLASSIFICATION_TYPE": "U", "NORAD_CAT_ID": 66362, "ELEMENT_SET_NO": 999, "REV_AT_EPOCH": 527, "BSTAR": -0.020293, "MEAN_MOTION_DOT": -0.01977385, "MEAN_MOTION_DDOT": 0}, "tle": {"line1": "1 66362U 25254Q   25336.50006943 -.01977385  00000+0 -20293-1 0  9995", "line2": "2 66362  53.1590 325.7728 0001262  89.0274 108.8990 15.67454333  5273"}}, "geometry": {"type": "Point", "coordinates": [-11.748006660268116, 29.265865401407478]}}]}